[
  {
    "id": 16,
    "nom": "Hotel 46266 Anaïs du Chat-qui-Pêche",
    "code_postal": "85625",
    "priority": true,
    "secteur": { "id": 5, "label": "78-95" },
    "ville": "Maillardhaven",
    "adresse": "46266 Anaïs du Chat-qui-Pêche",
    "nombre_chambre": 103,
    "last_visited_at": "2020-01-16T12:47:39.000Z",
    "last_note": 0
  },
  {
    "id": 45,
    "nom": "Hotel 31291 Ambre Mouffetard",
    "code_postal": "81623",
    "priority": false,
    "secteur": { "id": 5, "label": "78-95" },
    "ville": "Deschampsburgh",
    "adresse": "31291 Ambre Mouffetard",
    "nombre_chambre": 45,
    "last_visited_at": "2020-01-24T12:47:39.000Z",
    "last_note": 9
  },
  {
    "id": 7,
    "nom": "Hotel 06358 Mathilde Pastourelle",
    "code_postal": "37554",
    "priority": false,
    "secteur": { "id": 5, "label": "78-95" },
    "ville": "Lake Emiliemouth",
    "adresse": "06358 Mathilde Pastourelle",
    "nombre_chambre": 11,
    "last_visited_at": "2019-04-19T12:47:39.000Z",
    "last_note": 10
  },
  {
    "id": 14,
    "nom": "Hotel 6703 Kylian Saint-Séverin",
    "code_postal": "70973",
    "priority": false,
    "secteur": { "id": 3, "label": "92-94" },
    "ville": "Valentinbury",
    "adresse": "6703 Kylian Saint-Séverin",
    "nombre_chambre": 58,
    "last_visited_at": "2019-12-05T12:47:39.000Z",
    "last_note": 10
  },
  {
    "id": 48,
    "nom": "Hotel 931 Emilie des Grands Augustins",
    "code_postal": "92506",
    "priority": false,
    "secteur": { "id": 3, "label": "92-94" },
    "ville": "Fabreview",
    "adresse": "931 Emilie des Grands Augustins",
    "nombre_chambre": 73,
    "last_visited_at": "2019-05-31T12:47:39.000Z",
    "last_note": 11
  },
  {
    "id": 50,
    "nom": "Hotel 326 Mathilde de l'Odéon",
    "code_postal": "88705",
    "priority": false,
    "secteur": { "id": 3, "label": "92-94" },
    "ville": "North Lucie",
    "adresse": "326 Mathilde de l'Odéon",
    "nombre_chambre": 12,
    "last_visited_at": "2019-05-06T12:47:39.000Z",
    "last_note": 12
  },
  {
    "id": 56,
    "nom": "Hotel 10234 Manon de la Paix",
    "code_postal": "19221",
    "priority": true,
    "secteur": { "id": 5, "label": "78-95" },
    "ville": "West Romaneville",
    "adresse": "10234 Manon de la Paix",
    "nombre_chambre": 11,
    "last_visited_at": "2019-11-05T12:47:39.000Z",
    "last_note": 12
  },
  {
    "id": 37,
    "nom": "Hotel 0365 Kylian Adolphe Mille",
    "code_postal": "33260",
    "priority": false,
    "secteur": { "id": 4, "label": "77-91" },
    "ville": "South Maxenceshire",
    "adresse": "0365 Kylian Adolphe Mille",
    "nombre_chambre": 24,
    "last_visited_at": "2019-11-20T12:47:39.000Z",
    "last_note": 16
  },
  {
    "id": 8,
    "nom": "Hotel 08576 Baptiste Laffitte",
    "code_postal": "84785",
    "priority": false,
    "secteur": { "id": 4, "label": "77-91" },
    "ville": "New Océaneside",
    "adresse": "08576 Baptiste Laffitte",
    "nombre_chambre": 10,
    "last_visited_at": "2019-11-16T12:47:39.000Z",
    "last_note": 20
  },
  {
    "id": 34,
    "nom": "Hotel 50947 Léa de Seine",
    "code_postal": "38390",
    "priority": false,
    "secteur": { "id": 5, "label": "78-95" },
    "ville": "Aubertmouth",
    "adresse": "50947 Léa de Seine",
    "nombre_chambre": 42,
    "last_visited_at": "2019-08-14T12:47:39.000Z",
    "last_note": 21
  },
  {
    "id": 31,
    "nom": "Hotel 4317 Romane de Rivoli",
    "code_postal": "72983",
    "priority": false,
    "secteur": { "id": 2, "label": "93" },
    "ville": "Lemoineshire",
    "adresse": "4317 Romane de Rivoli",
    "nombre_chambre": 42,
    "last_visited_at": "2018-12-18T12:47:39.000Z",
    "last_note": 22
  },
  {
    "id": 11,
    "nom": "Hotel 254 Yanis La Boétie",
    "code_postal": "46494",
    "priority": true,
    "secteur": { "id": 4, "label": "77-91" },
    "ville": "Julestown",
    "adresse": "254 Yanis La Boétie",
    "nombre_chambre": 37,
    "last_visited_at": "2019-09-24T12:47:39.000Z",
    "last_note": 22
  },
  {
    "id": 29,
    "nom": "Hotel 20036 Gabriel Saint-Dominique",
    "code_postal": "45565",
    "priority": false,
    "secteur": { "id": 5, "label": "78-95" },
    "ville": "Port Clémence",
    "adresse": "20036 Gabriel Saint-Dominique",
    "nombre_chambre": 99,
    "last_visited_at": "2020-01-10T12:47:39.000Z",
    "last_note": 24
  },
  {
    "id": 3,
    "nom": "Hotel 428 Lena des Panoramas",
    "code_postal": "44029",
    "priority": false,
    "secteur": { "id": 1, "label": "75" },
    "ville": "South Carla",
    "adresse": "428 Lena des Panoramas",
    "nombre_chambre": 93,
    "last_visited_at": "2019-08-02T12:47:39.000Z",
    "last_note": 25
  },
  {
    "id": 25,
    "nom": "Hotel 42691 Juliette Mouffetard",
    "code_postal": "27177",
    "priority": false,
    "secteur": { "id": 3, "label": "92-94" },
    "ville": "Ambreburgh",
    "adresse": "42691 Juliette Mouffetard",
    "nombre_chambre": 43,
    "last_visited_at": "2019-10-01T12:47:39.000Z",
    "last_note": 25
  },
  {
    "id": 6,
    "nom": "Hotel 194 Lucie Du Sommerard",
    "code_postal": "49818",
    "priority": false,
    "secteur": { "id": 2, "label": "93" },
    "ville": "Maxenceview",
    "adresse": "194 Lucie Du Sommerard",
    "nombre_chambre": 58,
    "last_visited_at": "2019-11-22T12:47:39.000Z",
    "last_note": 25
  },
  {
    "id": 32,
    "nom": "Hotel 4766 Sacha Charlemagne",
    "code_postal": "72155",
    "priority": false,
    "secteur": { "id": 4, "label": "77-91" },
    "ville": "Alexishaven",
    "adresse": "4766 Sacha Charlemagne",
    "nombre_chambre": 5,
    "last_visited_at": "2020-01-06T12:47:39.000Z",
    "last_note": 25
  },
  {
    "id": 42,
    "nom": "Hotel 536 Louis Saint-Bernard",
    "code_postal": "81776",
    "priority": false,
    "secteur": { "id": 4, "label": "77-91" },
    "ville": "Martyburgh",
    "adresse": "536 Louis Saint-Bernard",
    "nombre_chambre": 61,
    "last_visited_at": "2019-09-04T12:47:39.000Z",
    "last_note": 26
  },
  {
    "id": 46,
    "nom": "Hotel 52731 Mael de Rivoli",
    "code_postal": "37658",
    "priority": false,
    "secteur": { "id": 2, "label": "93" },
    "ville": "Ethanberg",
    "adresse": "52731 Mael de Rivoli",
    "nombre_chambre": 74,
    "last_visited_at": "2019-09-30T12:47:39.000Z",
    "last_note": 26
  },
  {
    "id": 1,
    "nom": "Hotel 3002 Marie des Lombards",
    "code_postal": "04857",
    "priority": false,
    "secteur": { "id": 3, "label": "92-94" },
    "ville": "Victortown",
    "adresse": "3002 Marie des Lombards",
    "nombre_chambre": 104,
    "last_visited_at": "2020-01-03T12:47:39.000Z",
    "last_note": 27
  },
  {
    "id": 23,
    "nom": "Hotel 2486 Leroux de Montmorency",
    "code_postal": "52175",
    "priority": false,
    "secteur": { "id": 2, "label": "93" },
    "ville": "East Lilouview",
    "adresse": "2486 Leroux de Montmorency",
    "nombre_chambre": 93,
    "last_visited_at": "2020-01-02T12:47:39.000Z",
    "last_note": 29
  },
  {
    "id": 26,
    "nom": "Hotel 17005 Schmitt de Provence",
    "code_postal": "95037",
    "priority": false,
    "secteur": { "id": 5, "label": "78-95" },
    "ville": "Bertrandburgh",
    "adresse": "17005 Schmitt de Provence",
    "nombre_chambre": 32,
    "last_visited_at": "2019-09-24T12:47:39.000Z",
    "last_note": 30
  },
  {
    "id": 20,
    "nom": "Hotel 095 Marchal Vaneau",
    "code_postal": "39357",
    "priority": false,
    "secteur": { "id": 3, "label": "92-94" },
    "ville": "Tomfort",
    "adresse": "095 Marchal Vaneau",
    "nombre_chambre": 121,
    "last_visited_at": "2020-02-04T12:47:39.000Z",
    "last_note": 30
  },
  {
    "id": 30,
    "nom": "Hotel 81919 Girard Pierre Charron",
    "code_postal": "84571",
    "priority": false,
    "secteur": { "id": 2, "label": "93" },
    "ville": "South Adamside",
    "adresse": "81919 Girard Pierre Charron",
    "nombre_chambre": 75,
    "last_visited_at": "2020-01-23T12:47:39.000Z",
    "last_note": 33
  },
  {
    "id": 39,
    "nom": "Hotel 069 Maxence Mouffetard",
    "code_postal": "35759",
    "priority": false,
    "secteur": { "id": 3, "label": "92-94" },
    "ville": "New Juliette",
    "adresse": "069 Maxence Mouffetard",
    "nombre_chambre": 33,
    "last_visited_at": "2019-11-09T12:47:39.000Z",
    "last_note": 34
  },
  {
    "id": 41,
    "nom": "Hotel 68182 Emilie de l'Abbaye",
    "code_postal": "67991",
    "priority": true,
    "secteur": { "id": 1, "label": "75" },
    "ville": "Rouxchester",
    "adresse": "68182 Emilie de l'Abbaye",
    "nombre_chambre": 121,
    "last_visited_at": "2020-01-03T12:47:39.000Z",
    "last_note": 34
  },
  {
    "id": 51,
    "nom": "Hotel 93145 Jules Monsieur-le-Prince",
    "code_postal": "19421",
    "priority": false,
    "secteur": { "id": 2, "label": "93" },
    "ville": "Justinechester",
    "adresse": "93145 Jules Monsieur-le-Prince",
    "nombre_chambre": 116,
    "last_visited_at": "2019-05-10T12:47:39.000Z",
    "last_note": 35
  },
  {
    "id": 24,
    "nom": "Hotel 9797 Chevalier Saint-Bernard",
    "code_postal": "39661",
    "priority": false,
    "secteur": { "id": 3, "label": "92-94" },
    "ville": "Alicemouth",
    "adresse": "9797 Chevalier Saint-Bernard",
    "nombre_chambre": 23,
    "last_visited_at": "2020-02-07T12:47:39.000Z",
    "last_note": 35
  },
  {
    "id": 12,
    "nom": "Hotel 3618 Giraud Zadkine",
    "code_postal": "60743",
    "priority": true,
    "secteur": { "id": 3, "label": "92-94" },
    "ville": "West Sarahview",
    "adresse": "3618 Giraud Zadkine",
    "nombre_chambre": 67,
    "last_visited_at": "2019-12-02T12:47:39.000Z",
    "last_note": 37
  },
  {
    "id": 2,
    "nom": "Hotel 02749 Manon de Vaugirard",
    "code_postal": "41594",
    "priority": false,
    "secteur": { "id": 2, "label": "93" },
    "ville": "Antoineberg",
    "adresse": "02749 Manon de Vaugirard",
    "nombre_chambre": 122,
    "last_visited_at": "2019-12-17T12:47:39.000Z",
    "last_note": 37
  },
  {
    "id": 22,
    "nom": "Hotel 3642 Maxime de Vaugirard",
    "code_postal": "84331",
    "priority": false,
    "secteur": { "id": 2, "label": "93" },
    "ville": "Port Carla",
    "adresse": "3642 Maxime de Vaugirard",
    "nombre_chambre": 42,
    "last_visited_at": "2019-03-21T12:47:39.000Z",
    "last_note": 38
  },
  {
    "id": 27,
    "nom": "Hotel 00368 Marie Pastourelle",
    "code_postal": "38402",
    "priority": false,
    "secteur": { "id": 2, "label": "93" },
    "ville": "New Mathismouth",
    "adresse": "00368 Marie Pastourelle",
    "nombre_chambre": 94,
    "last_visited_at": "2019-09-08T12:47:39.000Z",
    "last_note": 38
  },
  {
    "id": 43,
    "nom": "Hotel 08371 Leclerc de la Paix",
    "code_postal": "11190",
    "priority": false,
    "secteur": { "id": 5, "label": "78-95" },
    "ville": "Durandfort",
    "adresse": "08371 Leclerc de la Paix",
    "nombre_chambre": 113,
    "last_visited_at": "2019-07-21T12:47:39.000Z",
    "last_note": 40
  },
  {
    "id": 36,
    "nom": "Hotel 6894 Roussel de Solférino",
    "code_postal": "45746",
    "priority": false,
    "secteur": { "id": 5, "label": "78-95" },
    "ville": "Lenaborough",
    "adresse": "6894 Roussel de Solférino",
    "nombre_chambre": 101,
    "last_visited_at": "2019-11-03T12:47:39.000Z",
    "last_note": 40
  },
  {
    "id": 17,
    "nom": "Hotel 164 Denis Marcadet",
    "code_postal": "82807",
    "priority": false,
    "secteur": { "id": 5, "label": "78-95" },
    "ville": "Barbierland",
    "adresse": "164 Denis Marcadet",
    "nombre_chambre": 20,
    "last_visited_at": "2020-01-31T12:47:39.000Z",
    "last_note": 43
  },
  {
    "id": 21,
    "nom": "Hotel 1526 Kylian du Bac",
    "code_postal": "47372",
    "priority": true,
    "secteur": { "id": 5, "label": "78-95" },
    "ville": "Port Benjamin",
    "adresse": "1526 Kylian du Bac",
    "nombre_chambre": 5,
    "last_visited_at": "2019-08-20T12:47:39.000Z",
    "last_note": 45
  },
  {
    "id": 19,
    "nom": "Hotel 9694 Antoine de Vaugirard",
    "code_postal": "10950",
    "priority": false,
    "secteur": { "id": 3, "label": "92-94" },
    "ville": "North Noémie",
    "adresse": "9694 Antoine de Vaugirard",
    "nombre_chambre": 3,
    "last_visited_at": "2019-10-22T12:47:39.000Z",
    "last_note": 46
  },
  {
    "id": 40,
    "nom": "Hotel 4882 Louise d'Alésia",
    "code_postal": "79639",
    "priority": false,
    "secteur": { "id": 4, "label": "77-91" },
    "ville": "Robertmouth",
    "adresse": "4882 Louise d'Alésia",
    "nombre_chambre": 24,
    "last_visited_at": "2019-11-15T12:47:39.000Z",
    "last_note": 46
  },
  {
    "id": 13,
    "nom": "Hotel 124 Roy Pierre Charron",
    "code_postal": "66688",
    "priority": false,
    "secteur": { "id": 5, "label": "78-95" },
    "ville": "North Aliciatown",
    "adresse": "124 Roy Pierre Charron",
    "nombre_chambre": 25,
    "last_visited_at": "2019-06-08T12:47:39.000Z",
    "last_note": 48
  },
  {
    "id": 47,
    "nom": "Hotel 03759 Henry de la Huchette",
    "code_postal": "69268",
    "priority": false,
    "secteur": { "id": 3, "label": "92-94" },
    "ville": "Lake Mariemouth",
    "adresse": "03759 Henry de la Huchette",
    "nombre_chambre": 0,
    "last_visited_at": "2019-11-15T12:47:39.000Z",
    "last_note": 48
  },
  {
    "id": 52,
    "nom": "Hotel 099 Legrand de l'Abbaye",
    "code_postal": "39967",
    "priority": false,
    "secteur": { "id": 4, "label": "77-91" },
    "ville": "West Lola",
    "adresse": "099 Legrand de l'Abbaye",
    "nombre_chambre": 56,
    "last_visited_at": "2019-03-04T12:47:39.000Z",
    "last_note": 49
  },
  {
    "id": 54,
    "nom": "Hotel 26714 Elisa Lepic",
    "code_postal": "42785",
    "priority": false,
    "secteur": { "id": 2, "label": "93" },
    "ville": "New Victorton",
    "adresse": "26714 Elisa Lepic",
    "nombre_chambre": 49,
    "last_visited_at": "2019-12-11T12:47:39.000Z",
    "last_note": 49
  },
  {
    "id": 35,
    "nom": "Hotel 534 Lisa La Boétie",
    "code_postal": "01584",
    "priority": false,
    "secteur": { "id": 2, "label": "93" },
    "ville": "Hubertborough",
    "adresse": "534 Lisa La Boétie",
    "nombre_chambre": 61,
    "last_visited_at": "2018-04-08T12:47:39.000Z",
    "last_note": 50
  },
  {
    "id": 15,
    "nom": "Hotel 699 Gautier La Boétie",
    "code_postal": "22164",
    "priority": false,
    "secteur": { "id": 1, "label": "75" },
    "ville": "Chevaliertown",
    "adresse": "699 Gautier La Boétie",
    "nombre_chambre": 67,
    "last_visited_at": "2019-04-25T12:47:39.000Z",
    "last_note": 50
  },
  {
    "id": 10,
    "nom": "Hotel 577 Lisa du Faubourg-Saint-Denis",
    "code_postal": "48109",
    "priority": false,
    "secteur": { "id": 5, "label": "78-95" },
    "ville": "Robertton",
    "adresse": "577 Lisa du Faubourg-Saint-Denis",
    "nombre_chambre": 41,
    "last_visited_at": "2019-05-27T12:47:39.000Z",
    "last_note": 50
  },
  {
    "id": 5,
    "nom": "Hotel 02150 Romane de l'Odéon",
    "code_postal": "75651",
    "priority": false,
    "secteur": { "id": 4, "label": "77-91" },
    "ville": "Pierreville",
    "adresse": "02150 Romane de l'Odéon",
    "nombre_chambre": 82,
    "last_visited_at": "2019-10-22T12:47:39.000Z",
    "last_note": 50
  },
  {
    "id": 18,
    "nom": "Hotel 0768 Prevost Pastourelle",
    "code_postal": "40052",
    "priority": false,
    "secteur": { "id": 3, "label": "92-94" },
    "ville": "North Noastad",
    "adresse": "0768 Prevost Pastourelle",
    "nombre_chambre": 80,
    "last_visited_at": "2020-02-07T12:47:39.000Z",
    "last_note": 53
  },
  {
    "id": 28,
    "nom": "Hotel 00265 Charlotte du Havre",
    "code_postal": "11469",
    "priority": false,
    "secteur": { "id": 4, "label": "77-91" },
    "ville": "Tomhaven",
    "adresse": "00265 Charlotte du Havre",
    "nombre_chambre": 2,
    "last_visited_at": "2019-06-21T12:47:39.000Z",
    "last_note": 55
  },
  {
    "id": 38,
    "nom": "Hotel 30825 Arthur des Panoramas",
    "code_postal": "40107",
    "priority": false,
    "secteur": { "id": 3, "label": "92-94" },
    "ville": "Lilouhaven",
    "adresse": "30825 Arthur des Panoramas",
    "nombre_chambre": 32,
    "last_visited_at": "2020-01-13T12:47:39.000Z",
    "last_note": 55
  },
  {
    "id": 55,
    "nom": "Hotel 98868 Théo de la Pompe",
    "code_postal": "67365",
    "priority": false,
    "secteur": { "id": 2, "label": "93" },
    "ville": "Leclercqton",
    "adresse": "98868 Théo de la Pompe",
    "nombre_chambre": 117,
    "last_visited_at": "2019-06-15T12:47:39.000Z",
    "last_note": 56
  },
  {
    "id": 4,
    "nom": "Hotel 034 Gabriel de Tilsitt",
    "code_postal": "45055",
    "priority": false,
    "secteur": { "id": 1, "label": "75" },
    "ville": "Gauthierville",
    "adresse": "034 Gabriel de Tilsitt",
    "nombre_chambre": 5,
    "last_visited_at": "2018-07-14T12:47:39.000Z",
    "last_note": 57
  },
  {
    "id": 9,
    "nom": "Hotel 32902 Gabriel du Faubourg Saint-Honoré",
    "code_postal": "03430",
    "priority": false,
    "secteur": { "id": 2, "label": "93" },
    "ville": "Lake Charlotteland",
    "adresse": "32902 Gabriel du Faubourg Saint-Honoré",
    "nombre_chambre": 26,
    "last_visited_at": "2020-01-02T12:47:39.000Z",
    "last_note": 57
  },
  {
    "id": 44,
    "nom": "Hotel 7999 Schneider de la Pompe",
    "code_postal": "09516",
    "priority": false,
    "secteur": { "id": 3, "label": "92-94" },
    "ville": "Lolaton",
    "adresse": "7999 Schneider de la Pompe",
    "nombre_chambre": 81,
    "last_visited_at": "2020-01-05T12:47:39.000Z",
    "last_note": 57
  },
  {
    "id": 49,
    "nom": "Hotel 4108 Morel de la Bûcherie",
    "code_postal": "84132",
    "priority": true,
    "secteur": { "id": 3, "label": "92-94" },
    "ville": "Bretonport",
    "adresse": "4108 Morel de la Bûcherie",
    "nombre_chambre": 68,
    "last_visited_at": "2018-04-14T12:47:39.000Z",
    "last_note": 58
  },
  {
    "id": 33,
    "nom": "Hotel 4137 Valentin d'Alésia",
    "code_postal": "55870",
    "priority": false,
    "secteur": { "id": 5, "label": "78-95" },
    "ville": "Carpentierberg",
    "adresse": "4137 Valentin d'Alésia",
    "nombre_chambre": 112,
    "last_visited_at": "2020-01-07T12:47:39.000Z",
    "last_note": 58
  },
  {
    "id": 53,
    "nom": "Hotel 967 Henry d'Argenteuil",
    "code_postal": "46695",
    "priority": false,
    "secteur": { "id": 3, "label": "92-94" },
    "ville": "New Laurahaven",
    "adresse": "967 Henry d'Argenteuil",
    "nombre_chambre": 8,
    "last_visited_at": "2019-11-05T12:47:39.000Z",
    "last_note": 60
  }
]
